CCSDS_OMM_VERS = 2.0
CREATION_DATE  = 
ORIGINATOR     = 

OBJECT_NAME    = SL-16 R/B
OBJECT_ID      = 1998-045B
CENTER_NAME    = EARTH
REF_FRAME      = TEME
TIME_SYSTEM    = UTC
MEAN_ELEMENT_THEORY = SGP/SGP4

EPOCH          = 2026-03-07T14:17:27.079584
MEAN_MOTION    = 14.16189434
ECCENTRICITY   = .00066146
INCLINATION    = 71.0114
RA_OF_ASC_NODE = 185.9774
ARG_OF_PERICENTER = 11.3637
MEAN_ANOMALY   = 348.7635

EPHEMERIS_TYPE = 0
CLASSIFICATION_TYPE = U
NORAD_CAT_ID   = 25407
ELEMENT_SET_NO = 999
REV_AT_EPOCH   = 42680
BSTAR          = .46824852E-4
MEAN_MOTION_DOT = .45E-6
MEAN_MOTION_DDOT = 0

CCSDS_OMM_VERS = 2.0
CREATION_DATE  = 
ORIGINATOR     = 

OBJECT_NAME    = ISS (ZARYA)
OBJECT_ID      = 1998-067A
CENTER_NAME    = EARTH
REF_FRAME      = TEME
TIME_SYSTEM    = UTC
MEAN_ELEMENT_THEORY = SGP/SGP4

EPOCH          = 2026-03-07T12:18:20.403360
MEAN_MOTION    = 15.48507964
ECCENTRICITY   = .00081324
INCLINATION    = 51.6318
RA_OF_ASC_NODE = 83.1189
ARG_OF_PERICENTER = 167.0679
MEAN_ANOMALY   = 193.0520

EPHEMERIS_TYPE = 0
CLASSIFICATION_TYPE = U
NORAD_CAT_ID   = 25544
ELEMENT_SET_NO = 999
REV_AT_EPOCH   = 55599
BSTAR          = .27601504E-3
MEAN_MOTION_DOT = .14539E-3
MEAN_MOTION_DDOT = 0

CCSDS_OMM_VERS = 2.0
CREATION_DATE  = 
ORIGINATOR     = 

OBJECT_NAME    = CZ-4B R/B
OBJECT_ID      = 1999-025C
CENTER_NAME    = EARTH
REF_FRAME      = TEME
TIME_SYSTEM    = UTC
MEAN_ELEMENT_THEORY = SGP/SGP4

EPOCH          = 2026-03-07T15:06:39.222432
MEAN_MOTION    = 14.18264963
ECCENTRICITY   = .00368616
INCLINATION    = 98.6631
RA_OF_ASC_NODE = 110.9599
ARG_OF_PERICENTER = 352.5842
MEAN_ANOMALY   = 119.9842

EPHEMERIS_TYPE = 0
CLASSIFICATION_TYPE = U
NORAD_CAT_ID   = 25732
ELEMENT_SET_NO = 999
REV_AT_EPOCH   = 38787
BSTAR          = .53558774E-4
MEAN_MOTION_DOT = .68E-6
MEAN_MOTION_DDOT = 0

CCSDS_OMM_VERS = 2.0
CREATION_DATE  = 
ORIGINATOR     = 

OBJECT_NAME    = OKEAN-O
OBJECT_ID      = 1999-039A
CENTER_NAME    = EARTH
REF_FRAME      = TEME
TIME_SYSTEM    = UTC
MEAN_ELEMENT_THEORY = SGP/SGP4

EPOCH          = 2026-03-07T14:58:48.374400
MEAN_MOTION    = 14.80332018
ECCENTRICITY   = .00012899
INCLINATION    = 97.9447
RA_OF_ASC_NODE = 126.5367
ARG_OF_PERICENTER = 69.6425
MEAN_ANOMALY   = 290.4926

EPHEMERIS_TYPE = 0
CLASSIFICATION_TYPE = U
NORAD_CAT_ID   = 25860
ELEMENT_SET_NO = 999
REV_AT_EPOCH   = 43408
BSTAR          = .13573305E-3
MEAN_MOTION_DOT = .983E-5
MEAN_MOTION_DDOT = 0

CCSDS_OMM_VERS = 2.0
CREATION_DATE  = 
ORIGINATOR     = 

OBJECT_NAME    = SL-16 R/B
OBJECT_ID      = 1999-039B
CENTER_NAME    = EARTH
REF_FRAME      = TEME
TIME_SYSTEM    = UTC
MEAN_ELEMENT_THEORY = SGP/SGP4

EPOCH          = 2026-03-07T14:32:36.669408
MEAN_MOTION    = 14.81728484
ECCENTRICITY   = .0013456
INCLINATION    = 97.9970
RA_OF_ASC_NODE = 125.7058
ARG_OF_PERICENTER = 263.5821
MEAN_ANOMALY   = 96.3859

EPHEMERIS_TYPE = 0
CLASSIFICATION_TYPE = U
NORAD_CAT_ID   = 25861
ELEMENT_SET_NO = 999
REV_AT_EPOCH   = 43655
BSTAR          = .11305116E-3
MEAN_MOTION_DOT = .838E-5
MEAN_MOTION_DDOT = 0

CCSDS_OMM_VERS = 2.0
CREATION_DATE  = 
ORIGINATOR     = 

OBJECT_NAME    = DELTA 2 R/B
OBJECT_ID      = 1999-041E
CENTER_NAME    = EARTH
REF_FRAME      = TEME
TIME_SYSTEM    = UTC
MEAN_ELEMENT_THEORY = SGP/SGP4

EPOCH          = 2026-03-07T14:25:40.234368
MEAN_MOTION    = 14.11831973
ECCENTRICITY   = .05023344
INCLINATION    = 51.7634
RA_OF_ASC_NODE = 309.6227
ARG_OF_PERICENTER = 342.2730
MEAN_ANOMALY   = 16.1212

EPHEMERIS_TYPE = 0
CLASSIFICATION_TYPE = U
NORAD_CAT_ID   = 25876
ELEMENT_SET_NO = 999
REV_AT_EPOCH   = 36273
BSTAR          = .28880693E-3
MEAN_MOTION_DOT = .1559E-4
MEAN_MOTION_DDOT = 0

CCSDS_OMM_VERS = 2.0
CREATION_DATE  = 
ORIGINATOR     = 

OBJECT_NAME    = HELIOS 1B
OBJECT_ID      = 1999-064A
CENTER_NAME    = EARTH
REF_FRAME      = TEME
TIME_SYSTEM    = UTC
MEAN_ELEMENT_THEORY = SGP/SGP4

EPOCH          = 2026-03-07T15:05:30.234624
MEAN_MOTION    = 14.87689900
ECCENTRICITY   = .00024584
INCLINATION    = 98.1695
RA_OF_ASC_NODE = 328.8118
ARG_OF_PERICENTER = 77.7272
MEAN_ANOMALY   = 282.4219

EPHEMERIS_TYPE = 0
CLASSIFICATION_TYPE = U
NORAD_CAT_ID   = 25977
ELEMENT_SET_NO = 999
REV_AT_EPOCH   = 68495
BSTAR          = .28635424E-3
MEAN_MOTION_DOT = .255E-4
MEAN_MOTION_DDOT = 0

CCSDS_OMM_VERS = 2.0
CREATION_DATE  = 
ORIGINATOR     = 

OBJECT_NAME    = TERRA
OBJECT_ID      = 1999-068A
CENTER_NAME    = EARTH
REF_FRAME      = TEME
TIME_SYSTEM    = UTC
MEAN_ELEMENT_THEORY = SGP/SGP4

EPOCH          = 2026-03-07T14:28:51.979296
MEAN_MOTION    = 14.61012261
ECCENTRICITY   = .00025739
INCLINATION    = 97.9598
RA_OF_ASC_NODE = 120.1178
ARG_OF_PERICENTER = 156.4312
MEAN_ANOMALY   = 323.6835

EPHEMERIS_TYPE = 0
CLASSIFICATION_TYPE = U
NORAD_CAT_ID   = 25994
ELEMENT_SET_NO = 999
REV_AT_EPOCH   = 39477
BSTAR          = .13241389E-3
MEAN_MOTION_DOT = .605E-5
MEAN_MOTION_DDOT = 0

CCSDS_OMM_VERS = 2.0
CREATION_DATE  = 
ORIGINATOR     = 

OBJECT_NAME    = SL-16 R/B
OBJECT_ID      = 2000-006B
CENTER_NAME    = EARTH
REF_FRAME      = TEME
TIME_SYSTEM    = UTC
MEAN_ELEMENT_THEORY = SGP/SGP4

EPOCH          = 2026-03-07T12:57:07.959744
MEAN_MOTION    = 14.15825753
ECCENTRICITY   = .00169265
INCLINATION    = 71.0011
RA_OF_ASC_NODE = 102.3587
ARG_OF_PERICENTER = 193.2974
MEAN_ANOMALY   = 166.7705

EPHEMERIS_TYPE = 0
CLASSIFICATION_TYPE = U
NORAD_CAT_ID   = 26070
ELEMENT_SET_NO = 999
REV_AT_EPOCH   = 34825
BSTAR          = .30513868E-4
MEAN_MOTION_DOT = .12E-6
MEAN_MOTION_DDOT = 0

CCSDS_OMM_VERS = 2.0
CREATION_DATE  = 
ORIGINATOR     = 

OBJECT_NAME    = TITAN 4B R/B
OBJECT_ID      = 2000-047B
CENTER_NAME    = EARTH
REF_FRAME      = TEME
TIME_SYSTEM    = UTC
MEAN_ELEMENT_THEORY = SGP/SGP4

EPOCH          = 2026-03-07T12:14:25.975968
MEAN_MOTION    = 15.09536374
ECCENTRICITY   = .00384296
INCLINATION    = 67.9897
RA_OF_ASC_NODE = 46.6389
ARG_OF_PERICENTER = 37.9775
MEAN_ANOMALY   = 322.4073

EPHEMERIS_TYPE = 0
CLASSIFICATION_TYPE = U
NORAD_CAT_ID   = 26474
ELEMENT_SET_NO = 999
REV_AT_EPOCH   = 39258
BSTAR          = .3889695E-3
MEAN_MOTION_DOT = .6233E-4
MEAN_MOTION_DDOT = 0

CCSDS_OMM_VERS = 2.0
CREATION_DATE  = 
ORIGINATOR     = 

OBJECT_NAME    = ENVISAT
OBJECT_ID      = 2002-009A
CENTER_NAME    = EARTH
REF_FRAME      = TEME
TIME_SYSTEM    = UTC
MEAN_ELEMENT_THEORY = SGP/SGP4

EPOCH          = 2026-03-07T11:11:04.073568
MEAN_MOTION    = 14.39036107
ECCENTRICITY   = .00013326
INCLINATION    = 98.3726
RA_OF_ASC_NODE = 20.1163
ARG_OF_PERICENTER = 83.7518
MEAN_ANOMALY   = 26.4096

EPHEMERIS_TYPE = 0
CLASSIFICATION_TYPE = U
NORAD_CAT_ID   = 27386
ELEMENT_SET_NO = 999
REV_AT_EPOCH   = 25885
BSTAR          = .83187997E-4
MEAN_MOTION_DOT = .214E-5
MEAN_MOTION_DDOT = 0

CCSDS_OMM_VERS = 2.0
CREATION_DATE  = 
ORIGINATOR     = 

OBJECT_NAME    = IDEFIX & ARIANE 42P R/B
OBJECT_ID      = 2002-021B
CENTER_NAME    = EARTH
REF_FRAME      = TEME
TIME_SYSTEM    = UTC
MEAN_ELEMENT_THEORY = SGP/SGP4

EPOCH          = 2026-03-07T09:33:29.977632
MEAN_MOTION    = 14.31024469
ECCENTRICITY   = .00114398
INCLINATION    = 98.5867
RA_OF_ASC_NODE = 5.0320
ARG_OF_PERICENTER = 189.0069
MEAN_ANOMALY   = 171.0911

EPHEMERIS_TYPE = 0
CLASSIFICATION_TYPE = U
NORAD_CAT_ID   = 27422
ELEMENT_SET_NO = 999
REV_AT_EPOCH   = 24369
BSTAR          = .18175883E-3
MEAN_MOTION_DOT = .435E-5
MEAN_MOTION_DDOT = 0

