SL-16 R/B               
1 25407U 98045B   26066.59545231  .00000045  00000+0  46825-4 0  9995
2 25407  71.0114 185.9774 0006614  11.3637 348.7635 14.16189434426800
ISS (ZARYA)             
1 25544U 98067A   26066.51273615  .00014539  00000+0  27602-3 0  9991
2 25544  51.6318  83.1189 0008132 167.0679 193.0520 15.48507964555998
CZ-4B R/B               
1 25732U 99025C   26066.62962063  .00000068  00000+0  53559-4 0  9992
2 25732  98.6631 110.9599 0036861 352.5842 119.9842 14.18264963387872
OKEAN-O                 
1 25860U 99039A   26066.62417100  .00000983  00000+0  13573-3 0  9993
2 25860  97.9447 126.5367 0001289  69.6425 290.4926 14.80332018434086
SL-16 R/B               
1 25861U 99039B   26066.60597997  .00000838  00000+0  11305-3 0  9995
2 25861  97.9970 125.7058 0013456 263.5821  96.3859 14.81728484436559
DELTA 2 R/B             
1 25876U 99041E   26066.60116012  .00001559  00000+0  28881-3 0  9997
2 25876  51.7634 309.6227 0502334 342.2730  16.1212 14.11831973362735
HELIOS 1B               
1 25977U 99064A   26066.62882216  .00002550  00000+0  28635-3 0  9991
2 25977  98.1695 328.8118 0002458  77.7272 282.4219 14.87689900684954
TERRA                   
1 25994U 99068A   26066.60337939  .00000605  00000+0  13241-3 0  9995
2 25994  97.9598 120.1178 0002573 156.4312 323.6835 14.61012261394771
SL-16 R/B               
1 26070U 00006B   26066.53967546  .00000012  00000+0  30514-4 0  9995
2 26070  71.0011 102.3587 0016926 193.2974 166.7705 14.15825753348257
TITAN 4B R/B            
1 26474U 00047B   26066.51002287  .00006233  00000+0  38897-3 0  9990
2 26474  67.9897  46.6389 0038429  37.9775 322.4073 15.09536374392582
ENVISAT                 
1 27386U 02009A   26066.46601937  .00000214  00000+0  83188-4 0  9991
2 27386  98.3726  20.1163 0001332  83.7518  26.4096 14.39036107258856
IDEFIX & ARIANE 42P R/B 
1 27422U 02021B   26066.39826363  .00000435  00000+0  18176-3 0  9999
2 27422  98.5867   5.0320 0011439 189.0069 171.0911 14.31024469243691
